MAYA-1                  
1 43590U 98067PE  19175.74525947  .00009135  00000-0  10890-3 0  9996
2 43590  51.6372 312.2146 0005484 174.5673 185.5382 15.61883267 49620
BHUTAN-1                
1 43591U 98067PF  19175.41580612  .00008748  00000-0  10435-3 0  9995
2 43591  51.6381 313.7839 0005709 174.7614 185.3441 15.61933825 49577
SIRIUSSAT-1             
1 43595U 98067PG  19175.40488821  .00008069  00000-0  99720-4 0  9998
2 43595  51.6369 315.1901 0003632 131.3712 228.7594 15.61132095 48732
SIRIUSSAT-2             
1 43596U 98067PH  19175.75596313  .00008473  00000-0  10500-3 0  9990
2 43596  51.6380 313.8192 0004153 133.0738 227.0604 15.60979587 48782
TANUSHA-3               
1 43597U 98067PJ  19174.85229196  .00010319  00000-0  11942-3 0  9996
2 43597  51.6364 316.7245 0003597 146.1451 213.9773 15.62494892 48665
SURFSAT                 
1 43614U 18070B   19175.78054188  .00001463  00000-0  39880-4 0  9994
2 43614  93.0223   6.1833 0013262 285.4741  74.5048 15.37534561 43347
CP7 (DAVE)              
1 43615U 18070C   19175.07060122  .00001263  00000-0  34539-4 0  9996
2 43615  93.0227   5.8921 0013502 287.8676  72.1104 15.37454123 43236
ELFIN-B                 
1 43616U 18070D   19175.79194857  .00002009  00000-0  53731-4 0  9993
2 43616  93.0192   6.1030 0014358 289.0333  70.9365 15.38074351 43357
ELFIN-A                 
1 43617U 18070E   19175.06999470  .00001962  00000-0  52431-4 0  9991
2 43617  93.0246   6.0248 0013451 288.7051  71.2742 15.38110404 43245
CUBEBEL-1 (BSUSAT-1)    
1 43666U 18083E   19175.89021041  .00000513  00000-0  28888-4 0  9990
2 43666  97.5181 200.3265 0015608 161.0078 320.9949 15.17581889 36221
DEBRISSAT-2             
1 43680U 98067PR  19175.85554209  .00014592  00000-0  16133-3 0  9990
2 43680  51.6386 311.4519 0003013 163.7912 196.3181 15.63285617 57568
CICERO 10               
1 43690U 18088A   19175.09237935  .00000715  00000-0  31589-4 0  9991
2 43690  85.0378 314.9494 0015066 179.3396 180.7867 15.19658905 34154
IRVINE01                
1 43693U 18088D   19175.66625431  .00001657  00000-0  71810-4 0  9996
2 43693  85.0354 314.1683 0019051 164.4187 195.7645 15.21385415 34273
PROXIMA I               
1 43694U 18088E   19175.09823973  .00000700  00000-0  29232-4 0  9994
2 43694  85.0322 314.3757 0020273 158.3363 201.8741 15.21384623 34196
PROXIMA II              
1 43696U 18088G   19174.83427036  .00000695  00000-0  29008-4 0  9991
2 43696  85.0323 314.5511 0020270 159.2318 200.9752 15.21389695 34158
FACSAT-1                
1 43721U 18096C   19175.70134701  .00000912  00000-0  37926-4 0  9990
2 43721  97.4593 245.5570 0016626 312.4348  47.5483 15.26293868 31656
CENTAURI-2              
1 43722U 18096D   19175.15661846  .00001064  00000-0  43494-4 0  9991
2 43722  97.4594 245.0599 0016821 315.2566  44.7315 15.26511159 31563
INNOSAT-2               
1 43738U 18096V   19175.73450823  .00001446  00000-0  54269-4 0  9999
2 43738  97.4598 246.2782 0023336 324.0267  35.9400 15.28661516 31704
SIRION PATHFINDER-2     
1 43759U 18099B   19175.67521676  .00000460  00000-0  47206-4 0  9991
2 43759  97.7446 247.5870 0012934 304.0302  55.9690 14.95129111 30316
CORVUS-BC 4             
1 43767U 18099K   19175.14792744  .00000464  00000-0  48223-4 0  9992
2 43767  97.7434 246.8559 0010520 310.5193  49.5110 14.94573326 30234
SHIELDS 1               
1 43850U 18104B   19175.10693048  .00000041  00000-0  00000+0 0  9992
2 43850  85.0271  52.8772 0013087 320.8626  39.1764 15.21083555 28849
STF-1                   
1 43852U 18104D   19175.17979122  .00000041  00000-0  00000+0 0  9991
2 43852  85.0331  53.0576 0013716 335.8462  24.2274 15.20603982 28848
ZACUBE-2                
1 43907U 18111AH  19175.78149183  .00000309  00000-0  15499-4 0  9993
2 43907  97.2900  80.8517 0020982 334.2947  25.7246 15.24189791 27376
LUME 1                  
1 43908U 18111AJ  19175.18306671  .00000655  00000-0  29513-4 0  9991
2 43908  97.2899  80.2856 0020989 336.7126  23.3159 15.24335024 27286
AOBA VELOX-IV           
1 43940U 19003J   19175.85444951  .00001146  00000-0  50073-4 0  9997
2 43940  97.2755 233.5825 0026153  52.4347  35.9996 15.23806587 24021
CATSAT-2                
1 44029U 98067PV  19175.77497078  .00006403  00000-0  95445-4 0  9995
2 44029  51.6400 320.6988 0005226 166.3660 193.7473 15.56483165 22525
DELPHINI                
1 44030U 98067PW  19174.87016814  .00006348  00000-0  94274-4 0  9999
2 44030  51.6392 325.1458 0004864 162.2713 197.8449 15.56606321 22350
UNITE                   
1 44031U 98067PX  19174.71652590  .00003984  00000-0  63755-4 0  9993
2 44031  51.6397 326.3716 0003612 155.5487 204.5676 15.55701956 22323
TECHEDSAT 8             
1 44032U 98067PY  19174.66401634  .00014193  00000-0  17977-3 0  9997
2 44032  51.6390 324.5209 0003798 165.3191 194.7913 15.59755266 22321
CATSAT-1                
1 44033U 98067PZ  19174.94020068  .00006237  00000-0  93162-4 0  9998
2 44033  51.6400 324.8738 0005054 162.6074 197.5092 15.56480472 22309
NEPALISAT-1             
1 44329U 98067QE  19174.93024453  .00004092  00000-0  74305-4 0  9992
2 44329  51.6418 327.7999 0007880 104.0563 256.1303 15.52018847  1076
RAAVANA-1               
1 44330U 98067QF  19175.44552474  .00003960  00000-0  72238-4 0  9996
2 44330  51.6420 325.2414 0007814 104.7507 255.4350 15.51987013  1138
UGUISU                  
1 44331U 98067QG  19174.86570669  .00004256  00000-0  76869-4 0  9991
2 44331  51.6420 328.1190 0007880 104.9615 255.2247 15.52054261  1052
SPOOQY-1                
1 44332U 98067QH  19174.99432523  .00004191  00000-0  75728-4 0  9993
2 44332  51.6418 327.4776 0006670 107.4163 252.7556 15.52091621  1049
